SL-16 R/B               
1 23405U 94077B   26199.84872249  .00000124  00000+0  87604-4 0  9997
2 23405  70.9821  76.5529 0004130 300.5794  59.4921 14.15574744634794
ARIANE 40+ R/B          
1 23561U 95021B   26199.97284624  .00000105  00000+0  47398-4 0  9993
2 23561  98.4398 269.5864 0007957 107.0490  65.6907 14.39848771638135
SL-16 R/B               
1 23705U 95058B   26199.93268384  .00000282  00000+0  16858-3 0  9996
2 23705  71.0207 264.7084 0014650 278.0100  81.9361 14.15510854586428
SL-16 R/B               
1 24298U 96051B   26199.26269021  .00000144  00000+0  10461-3 0  9994
2 24298  70.7644 258.8856 0018002 294.1271  65.7966 14.12457729540082
ORBVIEW 2 (SEASTAR)     
1 24883U 97037A   26199.87233746  .00000088  00000+0  46860-4 0  9991
2 24883  98.8718   7.7742 0002962  53.4763 306.6694 14.35567782527299
SL-16 R/B               
1 25400U 98043G   26199.86579531  .00000005  00000+0  21245-4 0  9998
2 25400  98.8380 154.3006 0009851   1.0319 359.0879 14.26073037457689
SL-16 R/B               
1 25407U 98045B   26199.87921655 -.00000013  00000+0  17306-4 0  9999
2 25407  71.0103 265.6811 0007978 201.0671 159.0125 14.16204909445674
ISS (ZARYA)             
1 25544U 98067A   26199.86307315  .00004074  00000+0  81939-4 0  9998
2 25544  51.6317 143.3357 0006807 311.9483  48.0925 15.49045026576665
CZ-4B R/B               
1 25732U 99025C   26199.90637303  .00000005  00000+0  23228-4 0  9997
2 25732  98.6470 240.9441 0036447 328.8980 204.3512 14.18288065406764
OKEAN-O                 
1 25860U 99039A   26199.91047284  .00000234  00000+0  37427-4 0  9998
2 25860  97.9298 258.3413 0000886  96.6258 263.5055 14.80499670453805
SL-16 R/B               
1 25861U 99039B   26199.90283179  .00000193  00000+0  31161-4 0  9996
2 25861  97.9820 258.6726 0014629 186.1322 173.9714 14.81872748456298
DELTA 2 R/B             
1 25876U 99041E   26199.81455409  .00000788  00000+0  16580-3 0  9999
2 25876  51.7612 137.4338 0501445  15.4419 346.1200 14.12093351381551
HELIOS 1B               
1 25977U 99064A   26199.71566858  .00000547  00000+0  65889-4 0  9996
2 25977  98.1579 105.7644 0001750  50.7312 309.4059 14.88079681704743
TERRA                   
1 25994U 99068A   26199.92711742  .00000156  00000+0  40641-4 0  9991
2 25994  97.9438 248.2121 0003546 115.4264 290.2725 14.61125306414243
SL-16 R/B               
1 26070U 00006B   26199.36339125  .00000056  00000+0  52811-4 0  9991
2 26070  71.0003 183.0713 0017318 335.6413  24.3890 14.15838129367055
TITAN 4B R/B            
1 26474U 00047B   26199.91527261  .00001249  00000+0  82648-4 0  9991
2 26474  67.9873  31.2535 0045740 255.0546 104.5538 15.10343503412728
ENVISAT                 
1 27386U 02009A   26199.87696225  .00000023  00000+0  21289-4 0  9999
2 27386  98.3848 150.4915 0001315  82.9600 295.7830 14.39071184278041
IDEFIX & ARIANE 42P R/B 
1 27422U 02021B   26199.80191385  .00000076  00000+0  45577-4 0  9998
2 27422  98.5941 136.9434 0012126 156.0037 204.1713 14.31094599262776
AQUA                    
1 27424U 02022A   26199.94608743  .00000337  00000+0  76941-4 0  9996
2 27424  98.4299 169.8680 0001256 101.7557 333.4935 14.62131534287917
CZ-4B R/B               
1 27432U 02024C   26199.87985859 -.00000009  00000+0  18159-4 0  9999
2 27432  98.8683 252.4913 0050294  11.5706 162.0327 14.14568466247782
MIDORI II (ADEOS-II)    
1 27597U 02056A   26199.84860506  .00000093  00000+0  54464-4 0  9995
2 27597  98.7896 159.3810 0001332  36.4516 323.6755 14.29364028229036
H-2A R/B                
1 27601U 02056E   26199.90386269  .00000118  00000+0  55610-4 0  9999
2 27601  98.3330 155.4254 0071052 130.0109 295.9309 14.33835046232910
CZ-4B R/B               
1 28059U 03049C   26199.86247859  .00000113  00000+0  37662-4 0  9998
2 28059  98.6912 199.9723 0047892 189.9814 170.0435 14.55117441205674
CZ-2C R/B               
1 28222U 04012C   26199.77901680  .00106192  00000+0  42879-3 0  9999
2 28222  97.7048 279.2857 0010834 181.3610 178.7632 15.85977451224890
SL-16 R/B               
1 28353U 04021B   26199.76950308 -.00000115  00000+0 -34862-4 0  9998
2 28353  71.0030 317.4076 0006193 222.0588 138.0059 14.14616355141376
CZ-4B R/B               
1 28415U 04035C   26199.05074265  .00003907  00000+0  13132-3 0  9999
2 28415  97.3352 231.7827 0029454 222.0369 137.8613 15.31014525199846
CZ-2C R/B               
1 28480U 04046B   26199.74414938  .00000063  00000+0  38062-4 0  9994
2 28480  98.1911 106.5477 0140314 126.9550 234.4577 14.27033904127199
ARIANE 5 R/B            
1 28499U 04049H   26199.45226317  .00000248  00000+0  34303-4 0  9996
2 28499  98.2744  12.9185 0082537 287.5511  71.6698 14.85480833165203
CZ-2D R/B               
1 28738U 05024B   26199.80542683  .00043586  00000+0  31927-3 0  9992
2 28738  97.3473 220.8952 0003026 182.8707 177.2541 15.73067742160304
ALOS (DAICHI)           
1 28931U 06002A   26199.87655029  .00000499  00000+0  91267-4 0  9990
2 28931  98.1339 155.3495 0000908 106.8744 253.2562 14.70106085 92757
